SL-3 R/B                
1 13403U 82079B   25364.28061235  .00008873  00000+0  36362-3 0  9992
2 13403  81.1475 274.9825 0026560  42.6500 317.6788 15.23816545367121
SL-14 R/B               
1 13553U 82092B   25364.33688509  .00000794  00000+0  86531-4 0  9996
2 13553  82.5668 206.2541 0020610 167.2113   5.6091 14.86574368318627
SL-3 R/B                
1 13819U 83010B   25364.27345046  .00021060  00000+0  45898-3 0  9990
2 13819  81.1042  87.2092 0016347 288.3993  71.5473 15.43980244347226
SL-3 R/B                
1 14208U 83075B   25364.24294997  .00015697  00000+0  43813-3 0  9993
2 14208  97.6109   1.3189 0024357 115.6557 244.7206 15.36522312319482
COSMOS 1536             
1 14699U 84013A   25364.22172749  .00010794  00000+0  45972-3 0  9999
2 14699  82.5447 176.8240 0014925 162.5086 197.6668 15.22744984262041
SL-14 R/B               
1 14820U 84027B   25364.26641211  .00000862  00000+0  95935-4 0  9999
2 14820  82.5427 310.1203 0017343 198.6694 161.3888 14.85895466237324
SL-8 R/B                
1 15483U 85006B   25364.29051030  .00000488  00000+0  17068-3 0  9994
2 15483  74.0458  28.8431 0019402 317.6543 126.3283 14.37733425144050
SL-12 R/B(2)            
1 15772U 85042D   25364.13224588  .00000189  00000+0  10644-3 0  9999
2 15772  71.1067 234.6776 0037125 235.9424 239.3401 14.21957228104501
SL-14 R/B               
1 15945U 85069B   25364.27233148  .00000833  00000+0  91472-4 0  9992
2 15945  82.5272  90.2211 0020161  64.5654 295.7646 14.86346461162525
SL-16 R/B               
1 16182U 85097B   25364.22980742 -.00000085  00000+0 -18797-4 0  9991
2 16182  71.0030 286.7821 0007754 344.2599 121.7831 14.16586602 77392
SL-14 R/B               
1 16496U 86006B   25364.26683573  .00001015  00000+0  10514-3 0  9996
2 16496  82.5278 325.0594 0077668 141.8643 218.8107 14.86696250138892
COSMOS 1743             
1 16719U 86034A   25364.11998628  .00044520  00000+0  70424-3 0  9993
2 16719  82.5350 146.5256 0005116 182.7517 177.3709 15.53248541169437
