CCSDS_OMM_VERS = 2.0
CREATION_DATE  = 
ORIGINATOR     = 

OBJECT_NAME    = SL-3 R/B
OBJECT_ID      = 1982-079B
CENTER_NAME    = EARTH
REF_FRAME      = TEME
TIME_SYSTEM    = UTC
MEAN_ELEMENT_THEORY = SGP/SGP4

EPOCH          = 2025-12-30T06:44:04.907040
MEAN_MOTION    = 15.23816545
ECCENTRICITY   = .00265605
INCLINATION    = 81.1475
RA_OF_ASC_NODE = 274.9825
ARG_OF_PERICENTER = 42.6500
MEAN_ANOMALY   = 317.6788

EPHEMERIS_TYPE = 0
CLASSIFICATION_TYPE = U
NORAD_CAT_ID   = 13403
ELEMENT_SET_NO = 999
REV_AT_EPOCH   = 36712
BSTAR          = .36362168E-3
MEAN_MOTION_DOT = .8873E-4
MEAN_MOTION_DDOT = 0

CCSDS_OMM_VERS = 2.0
CREATION_DATE  = 
ORIGINATOR     = 

OBJECT_NAME    = SL-14 R/B
OBJECT_ID      = 1982-092B
CENTER_NAME    = EARTH
REF_FRAME      = TEME
TIME_SYSTEM    = UTC
MEAN_ELEMENT_THEORY = SGP/SGP4

EPOCH          = 2025-12-30T08:05:06.871776
MEAN_MOTION    = 14.86574368
ECCENTRICITY   = .002061
INCLINATION    = 82.5668
RA_OF_ASC_NODE = 206.2541
ARG_OF_PERICENTER = 167.2113
MEAN_ANOMALY   = 5.6091

EPHEMERIS_TYPE = 0
CLASSIFICATION_TYPE = U
NORAD_CAT_ID   = 13553
ELEMENT_SET_NO = 999
REV_AT_EPOCH   = 31862
BSTAR          = .86530829E-4
MEAN_MOTION_DOT = .794E-5
MEAN_MOTION_DDOT = 0

CCSDS_OMM_VERS = 2.0
CREATION_DATE  = 
ORIGINATOR     = 

OBJECT_NAME    = SL-3 R/B
OBJECT_ID      = 1983-010B
CENTER_NAME    = EARTH
REF_FRAME      = TEME
TIME_SYSTEM    = UTC
MEAN_ELEMENT_THEORY = SGP/SGP4

EPOCH          = 2025-12-30T06:33:46.119744
MEAN_MOTION    = 15.43980244
ECCENTRICITY   = .00163472
INCLINATION    = 81.1042
RA_OF_ASC_NODE = 87.2092
ARG_OF_PERICENTER = 288.3993
MEAN_ANOMALY   = 71.5473

EPHEMERIS_TYPE = 0
CLASSIFICATION_TYPE = U
NORAD_CAT_ID   = 13819
ELEMENT_SET_NO = 999
REV_AT_EPOCH   = 34722
BSTAR          = .45897781E-3
MEAN_MOTION_DOT = .2106E-3
MEAN_MOTION_DDOT = 0

CCSDS_OMM_VERS = 2.0
CREATION_DATE  = 
ORIGINATOR     = 

OBJECT_NAME    = SL-3 R/B
OBJECT_ID      = 1983-075B
CENTER_NAME    = EARTH
REF_FRAME      = TEME
TIME_SYSTEM    = UTC
MEAN_ELEMENT_THEORY = SGP/SGP4

EPOCH          = 2025-12-30T05:49:50.877408
MEAN_MOTION    = 15.36522312
ECCENTRICITY   = .00243572
INCLINATION    = 97.6109
RA_OF_ASC_NODE = 1.3189
ARG_OF_PERICENTER = 115.6557
MEAN_ANOMALY   = 244.7206

EPHEMERIS_TYPE = 0
CLASSIFICATION_TYPE = U
NORAD_CAT_ID   = 14208
ELEMENT_SET_NO = 999
REV_AT_EPOCH   = 31948
BSTAR          = .43812819E-3
MEAN_MOTION_DOT = .15697E-3
MEAN_MOTION_DDOT = 0

CCSDS_OMM_VERS = 2.0
CREATION_DATE  = 
ORIGINATOR     = 

OBJECT_NAME    = COSMOS 1536
OBJECT_ID      = 1984-013A
CENTER_NAME    = EARTH
REF_FRAME      = TEME
TIME_SYSTEM    = UTC
MEAN_ELEMENT_THEORY = SGP/SGP4

EPOCH          = 2025-12-30T05:19:17.255136
MEAN_MOTION    = 15.22744984
ECCENTRICITY   = .00149254
INCLINATION    = 82.5447
RA_OF_ASC_NODE = 176.8240
ARG_OF_PERICENTER = 162.5086
MEAN_ANOMALY   = 197.6668

EPHEMERIS_TYPE = 0
CLASSIFICATION_TYPE = U
NORAD_CAT_ID   = 14699
ELEMENT_SET_NO = 999
REV_AT_EPOCH   = 26204
BSTAR          = .45972468E-3
MEAN_MOTION_DOT = .10794E-3
MEAN_MOTION_DDOT = 0

CCSDS_OMM_VERS = 2.0
CREATION_DATE  = 
ORIGINATOR     = 

OBJECT_NAME    = SL-14 R/B
OBJECT_ID      = 1984-027B
CENTER_NAME    = EARTH
REF_FRAME      = TEME
TIME_SYSTEM    = UTC
MEAN_ELEMENT_THEORY = SGP/SGP4

EPOCH          = 2025-12-30T06:23:38.006304
MEAN_MOTION    = 14.85895466
ECCENTRICITY   = .00173433
INCLINATION    = 82.5427
RA_OF_ASC_NODE = 310.1203
ARG_OF_PERICENTER = 198.6694
MEAN_ANOMALY   = 161.3888

EPHEMERIS_TYPE = 0
CLASSIFICATION_TYPE = U
NORAD_CAT_ID   = 14820
ELEMENT_SET_NO = 999
REV_AT_EPOCH   = 23732
BSTAR          = .95934687E-4
MEAN_MOTION_DOT = .862E-5
MEAN_MOTION_DDOT = 0

CCSDS_OMM_VERS = 2.0
CREATION_DATE  = 
ORIGINATOR     = 

OBJECT_NAME    = SL-8 R/B
OBJECT_ID      = 1985-006B
CENTER_NAME    = EARTH
REF_FRAME      = TEME
TIME_SYSTEM    = UTC
MEAN_ELEMENT_THEORY = SGP/SGP4

EPOCH          = 2025-12-30T06:58:20.089920
MEAN_MOTION    = 14.37733425
ECCENTRICITY   = .00194028
INCLINATION    = 74.0458
RA_OF_ASC_NODE = 28.8431
ARG_OF_PERICENTER = 317.6543
MEAN_ANOMALY   = 126.3283

EPHEMERIS_TYPE = 0
CLASSIFICATION_TYPE = U
NORAD_CAT_ID   = 15483
ELEMENT_SET_NO = 999
REV_AT_EPOCH   = 14405
BSTAR          = .17068099E-3
MEAN_MOTION_DOT = .488E-5
MEAN_MOTION_DDOT = 0

CCSDS_OMM_VERS = 2.0
CREATION_DATE  = 
ORIGINATOR     = 

OBJECT_NAME    = SL-12 R/B(2)
OBJECT_ID      = 1985-042D
CENTER_NAME    = EARTH
REF_FRAME      = TEME
TIME_SYSTEM    = UTC
MEAN_ELEMENT_THEORY = SGP/SGP4

EPOCH          = 2025-12-30T03:10:26.044032
MEAN_MOTION    = 14.21957228
ECCENTRICITY   = .00371257
INCLINATION    = 71.1067
RA_OF_ASC_NODE = 234.6776
ARG_OF_PERICENTER = 235.9424
MEAN_ANOMALY   = 239.3401

EPHEMERIS_TYPE = 0
CLASSIFICATION_TYPE = U
NORAD_CAT_ID   = 15772
ELEMENT_SET_NO = 999
REV_AT_EPOCH   = 10450
BSTAR          = .10643647E-3
MEAN_MOTION_DOT = .189E-5
MEAN_MOTION_DDOT = 0

CCSDS_OMM_VERS = 2.0
CREATION_DATE  = 
ORIGINATOR     = 

OBJECT_NAME    = SL-14 R/B
OBJECT_ID      = 1985-069B
CENTER_NAME    = EARTH
REF_FRAME      = TEME
TIME_SYSTEM    = UTC
MEAN_ELEMENT_THEORY = SGP/SGP4

EPOCH          = 2025-12-30T06:32:09.439872
MEAN_MOTION    = 14.86346461
ECCENTRICITY   = .00201615
INCLINATION    = 82.5272
RA_OF_ASC_NODE = 90.2211
ARG_OF_PERICENTER = 64.5654
MEAN_ANOMALY   = 295.7646

EPHEMERIS_TYPE = 0
CLASSIFICATION_TYPE = U
NORAD_CAT_ID   = 15945
ELEMENT_SET_NO = 999
REV_AT_EPOCH   = 16252
BSTAR          = .91472233E-4
MEAN_MOTION_DOT = .833E-5
MEAN_MOTION_DDOT = 0

CCSDS_OMM_VERS = 2.0
CREATION_DATE  = 
ORIGINATOR     = 

OBJECT_NAME    = SL-16 R/B
OBJECT_ID      = 1985-097B
CENTER_NAME    = EARTH
REF_FRAME      = TEME
TIME_SYSTEM    = UTC
MEAN_ELEMENT_THEORY = SGP/SGP4

EPOCH          = 2025-12-30T05:30:55.361088
MEAN_MOTION    = 14.16586602
ECCENTRICITY   = .00077544
INCLINATION    = 71.0030
RA_OF_ASC_NODE = 286.7821
ARG_OF_PERICENTER = 344.2599
MEAN_ANOMALY   = 121.7831

EPHEMERIS_TYPE = 0
CLASSIFICATION_TYPE = U
NORAD_CAT_ID   = 16182
ELEMENT_SET_NO = 999
REV_AT_EPOCH   = 7739
BSTAR          = -.18797481E-4
MEAN_MOTION_DOT = -.85E-6
MEAN_MOTION_DDOT = 0

CCSDS_OMM_VERS = 2.0
CREATION_DATE  = 
ORIGINATOR     = 

OBJECT_NAME    = SL-14 R/B
OBJECT_ID      = 1986-006B
CENTER_NAME    = EARTH
REF_FRAME      = TEME
TIME_SYSTEM    = UTC
MEAN_ELEMENT_THEORY = SGP/SGP4

EPOCH          = 2025-12-30T06:24:14.607072
MEAN_MOTION    = 14.86696250
ECCENTRICITY   = .00776681
INCLINATION    = 82.5278
RA_OF_ASC_NODE = 325.0594
ARG_OF_PERICENTER = 141.8643
MEAN_ANOMALY   = 218.8107

EPHEMERIS_TYPE = 0
CLASSIFICATION_TYPE = U
NORAD_CAT_ID   = 16496
ELEMENT_SET_NO = 999
REV_AT_EPOCH   = 13889
BSTAR          = .10513512E-3
MEAN_MOTION_DOT = .1015E-4
MEAN_MOTION_DDOT = 0

CCSDS_OMM_VERS = 2.0
CREATION_DATE  = 
ORIGINATOR     = 

OBJECT_NAME    = COSMOS 1743
OBJECT_ID      = 1986-034A
CENTER_NAME    = EARTH
REF_FRAME      = TEME
TIME_SYSTEM    = UTC
MEAN_ELEMENT_THEORY = SGP/SGP4

EPOCH          = 2025-12-30T02:52:46.814592
MEAN_MOTION    = 15.53248541
ECCENTRICITY   = .00051169
INCLINATION    = 82.5350
RA_OF_ASC_NODE = 146.5256
ARG_OF_PERICENTER = 182.7517
MEAN_ANOMALY   = 177.3709

EPHEMERIS_TYPE = 0
CLASSIFICATION_TYPE = U
NORAD_CAT_ID   = 16719
ELEMENT_SET_NO = 999
REV_AT_EPOCH   = 16943
BSTAR          = .70424262E-3
MEAN_MOTION_DOT = .4452E-3
MEAN_MOTION_DDOT = 0

